NORAD_CAT_ID,OBJECT_NAME,OBJECT_TYPE,EPOCH,MEAN_MOTION,ECCENTRICITY,INCLINATION,RA_OF_ASC_NODE,ARG_OF_PERICENTER,MEAN_ANOMALY,BSTAR,MEAN_MOTION_DOT,MEAN_MOTION_DDOT,TLE_LINE0,TLE_LINE1,TLE_LINE2,SEMIMAJOR_AXIS,PERIOD,APOGEE,PERIGEE,DECAYED
55760.0,STARLINK-5532,PAYLOAD,2023-09-12 09:52:28,14.98330213,0.0003233,70.0019,16.8894,270.3852,89.6937,1.7223e-05,1.13e-06,0.0,0 STARLINK-5532,1 55760U 23028V   23255.41144239  .00000113  00000-0  17223-4 0  9997,2 55760  70.0019  16.8894 0003233 270.3852  89.6937 14.98330213 29834,6950.192,96.107,574.304,569.81,0.0
55760.0,STARLINK-5532,PAYLOAD,2023-09-12 13:04:44,14.98331458,0.0003244,70.0015,16.5521,270.8185,89.2603,3.9205e-05,3.75e-06,0.0,0 STARLINK-5532,1 55760U 23028V   23255.54496090  .00000375  00000-0  39205-4 0  9990,2 55760  70.0015  16.5521 0003244 270.8185  89.2603 14.98331458 29861,6950.188,96.107,574.308,569.799,0.0
55760.0,STARLINK-5532,PAYLOAD,2023-09-12 17:53:08,14.98340957,0.0003166,70.0019,16.0479,272.264,87.8156,9.7328e-05,1.069e-05,0.0,0 STARLINK-5532,1 55760U 23028V   23255.74523253  .00001069  00000-0  97328-4 0  9995,2 55760  70.0019  16.0479 0003166 272.2640  87.8156 14.98340957 29880,6950.159,96.106,574.224,569.824,0.0
55760.0,STARLINK-5532,PAYLOAD,2023-09-13 09:54:29,14.98333909,0.0002946,70.0024,14.3661,267.5461,92.5361,2.1668e-05,1.66e-06,0.0,0 STARLINK-5532,1 55760U 23028V   23256.41283669  .00000166  00000-0  21668-4 0  9995,2 55760  70.0024  14.3661 0002946 267.5461  92.5361 14.98333909 29984,6950.181,96.107,574.093,569.998,0.0
55760.0,STARLINK-5532,PAYLOAD,2023-09-13 14:42:53,14.98330861,0.000304,70.0029,13.8615,270.9995,89.0816,0.00010181,1.122e-05,0.0,0 STARLINK-5532,1 55760U 23028V   23256.61311580  .00001122  00000-0  10181-3 0  9991,2 55760  70.0029  13.8615 0003040 270.9995  89.0816 14.98330861 30025,6950.19,96.107,574.168,569.942,0.0
55760.0,STARLINK-5532,PAYLOAD,2023-09-13 17:55:09,14.98336687,0.0003056,70.0018,13.5233,268.7199,91.3609,4.0073e-05,3.85e-06,0.0,0 STARLINK-5532,1 55760U 23028V   23256.74663306  .00000385  00000-0  40073-4 0  9995,2 55760  70.0018  13.5233 0003056 268.7199  91.3609 14.98336687 30044,6950.172,96.107,574.161,569.913,0.0
55760.0,STARLINK-5532,PAYLOAD,2023-09-14 09:56:28,14.9834507,0.0003224,70.002,11.8389,271.5929,88.4861,8.1057e-05,8.75e-06,0.0,0 STARLINK-5532,1 55760U 23028V   23257.41422151  .00000875  00000-0  81057-4 0  9992,2 55760  70.0020  11.8389 0003224 271.5929  88.4861 14.98345070 30133,6950.146,96.106,574.252,569.771,0.0
55760.0,STARLINK-5532,PAYLOAD,2023-09-14 11:32:36,14.98340515,0.000293,70.0029,11.6711,222.4472,137.6461,4.2335e-05,4.12e-06,0.0,0 STARLINK-5532,1 55760U 23028V   23257.48098179  .00000412  00000-0  42335-4 0  9991,2 55760  70.0029  11.6711 0002930 222.4472 137.6461 14.98340515 30154,6950.16,96.106,574.062,569.989,0.0
55760.0,STARLINK-5532,PAYLOAD,2023-09-14 17:57:10,14.98323836,0.0003087,70.0019,10.9995,266.1637,93.9169,-0.00019119,-2.373e-05,0.0,0 STARLINK-5532,1 55760U 23028V   23257.74804155 -.00002373  00000-0 -19119-3 0  9992,2 55760  70.0019  10.9995 0003087 266.1637  93.9169 14.98323836 30180,6950.212,96.107,574.222,569.931,0.0
55760.0,STARLINK-5532,PAYLOAD,2023-09-15 11:34:39,14.98320303,0.0003022,70.0018,9.1469,267.4967,92.5846,-0.00013927,-1.754e-05,0.0,0 STARLINK-5532,1 55760U 23028V   23258.48240518 -.00001754  00000-0 -13927-3 0  9994,2 55760  70.0018   9.1469 0003022 267.4967  92.5846 14.98320303 30301,6950.223,96.108,574.188,569.988,0.0
55760.0,STARLINK-5532,PAYLOAD,2023-09-15 17:59:13,14.9830344,0.0003253,70.0014,8.4698,278.5652,81.5138,-0.00021887,-2.702e-05,0.0,0 STARLINK-5532,1 55760U 23028V   23258.74946146 -.00002702  00000-0 -21887-3 0  9991,2 55760  70.0014   8.4698 0003253 278.5652  81.5138 14.98303440 30331,6950.275,96.109,574.401,569.879,0.0
55760.0,STARLINK-5532,PAYLOAD,2023-09-16 10:00:34,14.98315849,0.000321,69.9999,6.7882,264.075,96.0043,-0.00030116,-3.683e-05,0.0,0 STARLINK-5532,1 55760U 23028V   23259.41706273 -.00003683  00000-0 -30116-3 0  9995,2 55760  69.9999   6.7882 0003210 264.0750  96.0043 14.98315849 30431,6950.237,96.108,574.333,569.871,0.0
55760.0,STARLINK-5532,PAYLOAD,2023-09-16 13:12:49,14.98323311,0.0002713,70.0011,6.4545,255.0515,105.0343,-0.0002401,-2.956e-05,0.0,0 STARLINK-5532,1 55760U 23028V   23259.55057800 -.00002956  00000-0 -24010-3 0  9993,2 55760  70.0011   6.4545 0002713 255.0515 105.0343 14.98323311 30468,6950.214,96.107,573.964,570.193,0.0
55760.0,STARLINK-5532,PAYLOAD,2023-09-16 16:25:06,14.98321806,0.0002811,70.0012,6.1182,254.2428,105.8421,-0.00021247,-2.627e-05,0.0,0 STARLINK-5532,1 55760U 23028V   23259.68409906 -.00002627  00000-0 -21247-3 0  9999,2 55760  70.0012   6.1182 0002811 254.2428 105.8421 14.98321806 30479,6950.218,96.108,574.037,570.13,0.0
55760.0,STARLINK-5532,PAYLOAD,2023-09-17 10:02:34,14.98323646,0.0003178,70.0004,4.2652,270.2294,89.8501,0.00020128,2.309e-05,0.0,0 STARLINK-5532,1 55760U 23028V   23260.41845442  .00002309  00000-0  20128-3 0  9993,2 55760  70.0004   4.2652 0003178 270.2294  89.8501 14.98323646 30583,6950.213,96.107,574.286,569.869,0.0
55760.0,STARLINK-5532,PAYLOAD,2023-09-17 16:27:06,14.98335228,0.0003277,70.0006,3.5919,274.4884,85.5901,0.00024583,2.842e-05,0.0,0 STARLINK-5532,1 55760U 23028V   23260.68548656  .00002842  00000-0  24583-3 0  9990,2 55760  70.0006   3.5919 0003277 274.4884  85.5901 14.98335228 30625,6950.177,96.107,574.319,569.764,0.0
55760.0,STARLINK-5532,PAYLOAD,2023-09-18 00:27:46,14.98327447,0.000309,70.0001,2.7499,270.8708,89.2097,0.00032914,3.836e-05,0.0,0 STARLINK-5532,1 55760U 23028V   23261.01929016  .00003836  00000-0  32914-3 0  9992,2 55760  70.0001   2.7499 0003090 270.8708  89.2097 14.98327447 30678,6950.201,96.107,574.213,569.918,0.0
55760.0,STARLINK-5532,PAYLOAD,2023-09-18 13:16:50,14.98339958,0.0002752,70.0007,1.4036,264.7152,95.3693,0.00026727,3.098e-05,0.0,0 STARLINK-5532,1 55760U 23028V   23261.55336281  .00003098  00000-0  26727-3 0  9992,2 55760  70.0007   1.4036 0002752 264.7152  95.3693 14.98339958 30766,6950.162,96.106,573.94,570.114,0.0
55760.0,STARLINK-5532,PAYLOAD,2023-09-18 16:29:06,14.98344823,0.0002749,70.0007,1.0669,265.7247,94.3598,0.00030266,3.521e-05,0.0,0 STARLINK-5532,1 55760U 23028V   23261.68687768  .00003521  00000-0  30266-3 0  9999,2 55760  70.0007   1.0669 0002749 265.7247  94.3598 14.98344823 30777,6950.147,96.106,573.923,570.101,0.0
55760.0,STARLINK-5532,PAYLOAD,2023-09-19 00:29:47,14.9833111,0.000302,70.0005,0.2253,270.2713,89.81,1.3803e-05,7.2e-07,0.0,0 STARLINK-5532,1 55760U 23028V   23262.02069178  .00000072  00000-0  13803-4 0  9994,2 55760  70.0005   0.2253 0003020 270.2713  89.8100 14.98331110 30826,6950.189,96.107,574.153,569.956,0.0
55760.0,STARLINK-5532,PAYLOAD,2023-09-19 16:31:07,14.98343363,0.0002909,70.0002,358.5415,269.2628,90.8197,-4.3069e-05,-6.07e-06,0.0,0 STARLINK-5532,1 55760U 23028V   23262.68828247 -.00000607  00000-0 -43069-4 0  9999,2 55760  70.0002 358.5415 0002909 269.2628  90.8197 14.98343363 30922,6950.152,96.106,574.038,569.995,0.0
55760.0,STARLINK-5532,PAYLOAD,2023-09-20 13:20:53,14.98332212,0.0002693,70.0015,356.3567,256.1278,103.9581,-0.00020255,-2.509e-05,0.0,0 STARLINK-5532,1 55760U 23028V   23263.55616982 -.00002509  00000-0 -20255-3 0  9991,2 55760  70.0015 356.3567 0002693 256.1278 103.9581 14.98332212 31055,6950.186,96.107,573.923,570.179,0.0
55760.0,STARLINK-5532,PAYLOAD,2023-09-20 16:33:09,14.98331152,0.0002763,70.0013,356.02,258.1933,101.8916,-0.00020858,-2.581e-05,0.0,0 STARLINK-5532,1 55760U 23028V   23263.68969056 -.00002581  00000-0 -20858-3 0  9997,2 55760  70.0013 356.0200 0002763 258.1933 101.8916 14.98331152 31086,6950.189,96.107,573.975,570.134,0.0
55760.0,STARLINK-5532,PAYLOAD,2023-09-21 13:22:53,14.98332715,0.0003084,70.0003,353.8298,270.7234,89.3572,6.2043e-05,6.47e-06,0.0,0 STARLINK-5532,1 55760U 23028V   23264.55756213  .00000647  00000-0  62043-4 0  9995,2 55760  70.0003 353.8298 0003084 270.7234  89.3572 14.98332715 31217,6950.184,96.107,574.193,569.906,0.0
55760.0,STARLINK-5532,PAYLOAD,2023-09-21 16:35:09,14.98336592,0.0002967,70.0002,353.4929,265.4701,94.6119,6.4982e-05,6.83e-06,0.0,0 STARLINK-5532,1 55760U 23028V   23264.69107903  .00000683  00000-0  64982-4 0  9990,2 55760  70.0002 353.4929 0002967 265.4701  94.6119 14.98336592 31226,6950.173,96.107,574.1,569.975,0.0
55760.0,STARLINK-5532,PAYLOAD,2023-09-21 18:11:17,14.9833926,0.0003183,69.9999,353.3238,273.5576,86.5219,0.00012428,1.391e-05,0.0,0 STARLINK-5532,1 55760U 23028V   23264.75783581  .00001391  00000-0  12428-3 0  9993,2 55760  69.9999 353.3238 0003183 273.5576  86.5219 14.98339260 31249,6950.164,96.106,574.241,569.817,0.0
55760.0,STARLINK-5532,PAYLOAD,2023-09-22 10:12:38,14.98329515,0.0003161,69.9998,351.6406,271.9662,88.1135,9.0595e-05,9.88e-06,0.0,0 STARLINK-5532,1 55760U 23028V   23265.42544164  .00000988  00000-0  90595-4 0  9993,2 55760  69.9998 351.6406 0003161 271.9662  88.1135 14.98329515 31337,6950.194,96.107,574.256,569.862,0.0
55760.0,STARLINK-5532,PAYLOAD,2023-09-22 13:24:54,14.9833203,0.0003114,69.9999,351.3041,272.033,88.0473,0.0001193,1.331e-05,0.0,0 STARLINK-5532,1 55760U 23028V   23265.55895920  .00001331  00000-0  11930-3 0  9994,2 55760  69.9999 351.3041 0003114 272.0330  88.0473 14.98332030 31365,6950.187,96.107,574.216,569.887,0.0
55760.0,STARLINK-5532,PAYLOAD,2023-09-22 15:01:01,14.98334122,0.0003101,69.9999,351.1359,271.922,88.1584,0.00014006,1.579e-05,0.0,0 STARLINK-5532,1 55760U 23028V   23265.62571712  .00001579  00000-0  14006-3 0  9993,2 55760  69.9999 351.1359 0003101 271.9220  88.1584 14.98334122 31376,6950.18,96.107,574.2,569.89,0.0
55760.0,STARLINK-5532,PAYLOAD,2023-09-23 11:50:47,14.98331535,0.0003055,69.9999,348.9474,270.7006,89.3803,-3.4134e-05,-5e-06,0.0,0 STARLINK-5532,1 55760U 23028V   23266.49360176 -.00000500  00000-0 -34134-4 0  9999,2 55760  69.9999 348.9474 0003055 270.7006  89.3803 14.98331535 31490,6950.188,96.107,574.176,569.93,0.0
